[{"OBJECT_NAME":"GEOSCAN 6 (RS92S6)","OBJECT_ID":"2025-155D","EPOCH":"2026-03-09T21:52:39.201312","MEAN_MOTION":15.27985277,"ECCENTRICITY":0.00087677,"INCLINATION":97.4466,"RA_OF_ASC_NODE":37.2933,"ARG_OF_PERICENTER":153.7679,"MEAN_ANOMALY":206.4006,"EPHEMERIS_TYPE":0,"CLASSIFICATION_TYPE":"U","NORAD_CAT_ID":64879,"ELEMENT_SET_NO":999,"REV_AT_EPOCH":6559,"BSTAR":0.00053762354,"MEAN_MOTION_DOT":0.00014633,"MEAN_MOTION_DDOT":0},{"OBJECT_NAME":"STARLINK-36081","OBJECT_ID":"2026-012F","EPOCH":"2026-03-09T01:22:57.161856","MEAN_MOTION":15.27575775,"ECCENTRICITY":0.00013471,"INCLINATION":42.9991,"RA_OF_ASC_NODE":318.1112,"ARG_OF_PERICENTER":275.9114,"MEAN_ANOMALY":84.1584,"EPHEMERIS_TYPE":0,"CLASSIFICATION_TYPE":"U","NORAD_CAT_ID":67498,"ELEMENT_SET_NO":999,"REV_AT_EPOCH":766,"BSTAR":0.001523546,"MEAN_MOTION_DOT":0.00041896,"MEAN_MOTION_DDOT":0}]
